[{"spaceTrack":{"CCSDS_OMM_VERS":"2.0","COMMENT":"GENERATED VIA SPACE-TRACK.ORG API","CREATION_DATE":"2021-07-02T17:51:43","ORIGINATOR":"18 SPCS","OBJECT_NAME":"STARLINK-1325","OBJECT_ID":"2020-025Z","CENTER_NAME":"EARTH","REF_FRAME":"TEME","TIME_SYSTEM":"UTC","MEAN_ELEMENT_THEORY":"SGP4","EPOCH":"2021-07-02T11:41:49.005600","MEAN_MOTION":15.06395655,"ECCENTRICITY":0.0000205,"INCLINATION":53.0542,"RA_OF_ASC_NODE":208.5101,"ARG_OF_PERICENTER":104.8542,"MEAN_ANOMALY":255.2469,"EPHEMERIS_TYPE":0,"CLASSIFICATION_TYPE":"U","NORAD_CAT_ID":45554,"ELEMENT_SET_NO":999,"REV_AT_EPOCH":6745,"BSTAR":0.000052391,"MEAN_MOTION_DOT":0.00000499,"MEAN_MOTION_DDOT":0,"SEMIMAJOR_AXIS":6925.362,"PERIOD":95.592,"APOAPSIS":547.369,"PERIAPSIS":547.085,"OBJECT_TYPE":"PAYLOAD","RCS_SIZE":"LARGE","COUNTRY_CODE":"US","LAUNCH_DATE":"2020-04-22","SITE":"AFETR","DECAY_DATE":null,"DECAYED":0,"FILE":3068555,"GP_ID":180166152,"TLE_LINE0":"0 STARLINK-1325","TLE_LINE1":"1 45554U 20025Z   21183.48737275  .00000499  00000-0  52391-4 0  9996","TLE_LINE2":"2 45554  53.0542 208.5101 0000205 104.8542 255.2469 15.06395655 67452"},"version":"v1.0","launch":"5eb87d44ffd86e000604b386","longitude":-97.31266899628531,"latitude":-42.77923813919688,"height_km":561.6551083057693,"velocity_kms":7.5802546522365075,"id":"5eed7715096e59000698579c"},{"spaceTrack":{"CCSDS_OMM_VERS":"2.0","COMMENT":"GENERATED VIA SPACE-TRACK.ORG API","CREATION_DATE":"2021-07-02T22:26:11","ORIGINATOR":"18 SPCS","OBJECT_NAME":"STARLINK-1339","OBJECT_ID":"2020-025C","CENTER_NAME":"EARTH","REF_FRAME":"TEME","TIME_SYSTEM":"UTC","MEAN_ELEMENT_THEORY":"SGP4","EPOCH":"2021-07-02T12:00:22.976352","MEAN_MOTION":15.06399397,"ECCENTRICITY":0.0001143,"INCLINATION":53.0544,"RA_OF_ASC_NODE":228.454,"ARG_OF_PERICENTER":109.0266,"MEAN_ANOMALY":251.0846,"EPHEMERIS_TYPE":0,"CLASSIFICATION_TYPE":"U","NORAD_CAT_ID":45533,"ELEMENT_SET_NO":999,"REV_AT_EPOCH":6658,"BSTAR":-0.000027855,"MEAN_MOTION_DOT":-0.00000696,"MEAN_MOTION_DDOT":0,"SEMIMAJOR_AXIS":6925.35,"PERIOD":95.592,"APOAPSIS":548.007,"PERIAPSIS":546.424,"OBJECT_TYPE":"PAYLOAD","RCS_SIZE":"LARGE","COUNTRY_CODE":"US","LAUNCH_DATE":"2020-04-22","SITE":"AFETR","DECAY_DATE":null,"DECAYED":0,"FILE":3068640,"GP_ID":180170848,"TLE_LINE0":"0 STARLINK-1339","TLE_LINE1":"1 45533U 20025C   21183.50026593 -.00000696  00000-0 -27855-4 0  9998","TLE_LINE2":"2 45533  53.0544 228.4540 0001143 109.0266 251.0846 15.06399397 66584"},"version":"v1.0","launch":"5eb87d44ffd86e000604b386","longitude":-175.7874364779309,"latitude":-39.279411606405446,"height_km":560.4822378170456,"velocity_kms":7.5807508219087945,"id":"5eed7715096e59000698579d"},{"spaceTrack":{"CCSDS_OMM_VERS":"2.0","COMMENT":"GENERATED VIA SPACE-TRACK.ORG API","CREATION_DATE":"2021-07-02T22:26:11","ORIGINATOR":"18 SPCS","OBJECT_NAME":"STARLINK-1367","OBJECT_ID":"2020-025J","CENTER_NAME":"EARTH","REF_FRAME":"TEME","TIME_SYSTEM":"UTC","MEAN_ELEMENT_THEORY":"SGP4","EPOCH":"2021-07-02T12:13:29.217216","MEAN_MOTION":15.42364898,"ECCENTRICITY":0.0001653,"INCLINATION":53.0356,"RA_OF_ASC_NODE":195.1153,"ARG_OF_PERICENTER":140.1941,"MEAN_ANOMALY":219.9185,"EPHEMERIS_TYPE":0,"CLASSIFICATION_TYPE":"U","NORAD_CAT_ID":45539,"ELEMENT_SET_NO":999,"REV_AT_EPOCH":6702,"BSTAR":-0.0023044,"MEAN_MOTION_DOT":-0.00100089,"MEAN_MOTION_DDOT":0,"SEMIMAJOR_AXIS":6817.269,"PERIOD":93.363,"APOAPSIS":440.261,"PERIAPSIS":438.007,"OBJECT_TYPE":"PAYLOAD","RCS_SIZE":"LARGE","COUNTRY_CODE":"US","LAUNCH_DATE":"2020-04-22","SITE":"AFETR","DECAY_DATE":null,"DECAYED":0,"FILE":3068637,"GP_ID":180170336,"TLE_LINE0":"0 STARLINK-1367","TLE_LINE1":"1 45539U 20025J   21183.50936594 -.00100089  00000-0 -23044-2 0  9996","TLE_LINE2":"2 45539  53.0356 195.1153 0001653 140.1941 219.9185 15.42364898 67020"},"version":"v1.0","launch":"5eb87d44ffd86e000604b386","longitude":157.77976114421307,"latitude":-43.220854058676885,"height_km":454.0047892021739,"velocity_kms":7.639740612669613,"id":"5eed7715096e59000698579e"},{"spaceTrack":{"CCSDS_OMM_VERS":"2.0","COMMENT":"GENERATED VIA SPACE-TRACK.ORG API","CREATION_DATE":"2021-07-02T17:51:43","ORIGINATOR":"18 SPCS","OBJECT_NAME":"STARLINK-1368","OBJECT_ID":"2020-025K","CENTER_NAME":"EARTH","REF_FRAME":"TEME","TIME_SYSTEM":"UTC","MEAN_ELEMENT_THEORY":"SGP4","EPOCH":"2021-07-02T12:26:55.061376","MEAN_MOTION":15.0639989,"ECCENTRICITY":0.0001064,"INCLINATION":53.0542,"RA_OF_ASC_NODE":228.3706,"ARG_OF_PERICENTER":90.8792,"MEAN_ANOMALY":269.2319,"EPHEMERIS_TYPE":0,"CLASSIFICATION_TYPE":"U","NORAD_CAT_ID":45540,"ELEMENT_SET_NO":999,"REV_AT_EPOCH":6717,"BSTAR":0.000070636,"MEAN_MOTION_DOT":0.00000771,"MEAN_MOTION_DDOT":0,"SEMIMAJOR_AXIS":6925.349,"PERIOD":95.592,"APOAPSIS":547.951,"PERIAPSIS":546.477,"OBJECT_TYPE":"PAYLOAD","RCS_SIZE":"LARGE","COUNTRY_CODE":"US","LAUNCH_DATE":"2020-04-22","SITE":"AFETR","DECAY_DATE":null,"DECAYED":0,"FILE":3068555,"GP_ID":180165149,"TLE_LINE0":"0 STARLINK-1368","TLE_LINE1":"1 45540U 20025K   21183.51869284  .00000771  00000-0  70636-4 0  9996","TLE_LINE2":"2 45540  53.0542 228.3706 0001064  90.8792 269.2319 15.06399890 67176"},"version":"v1.0","launch":"5eb87d44ffd86e000604b386","longitude":112.89534716765212,"latitude":36.49730521010227,"height_km":549.5157754594702,"velocity_kms":7.5921544884591565,"id":"5eed7715096e59000698579f"},{"spaceTrack":{"CCSDS_OMM_VERS":"2.0","COMMENT":"GENERATED VIA SPACE-TRACK.ORG API","CREATION_DATE":"2021-07-02T17:51:43","ORIGINATOR":"18 SPCS","OBJECT_NAME":"STARLINK-1485","OBJECT_ID":"2020-038AW","CENTER_NAME":"EARTH","REF_FRAME":"TEME","TIME_SYSTEM":"UTC","MEAN_ELEMENT_THEORY":"SGP4","EPOCH":"2021-07-02T12:52:07.190112","MEAN_MOTION":15.0640027,"ECCENTRICITY":0.0001304,"INCLINATION":53.0564,"RA_OF_ASC_NODE":318.2926,"ARG_OF_PERICENTER":114.311,"MEAN_ANOMALY":245.8015,"EPHEMERIS_TYPE":0,"CLASSIFICATION_TYPE":"U","NORAD_CAT_ID":45774,"ELEMENT_SET_NO":999,"REV_AT_EPOCH":5884,"BSTAR":0.000088686,"MEAN_MOTION_DOT":0.0000104,"MEAN_MOTION_DDOT":0,"SEMIMAJOR_AXIS":6925.348,"PERIOD":95.592,"APOAPSIS":548.116,"PERIAPSIS":546.31,"OBJECT_TYPE":"PAYLOAD","RCS_SIZE":"LARGE","COUNTRY_CODE":"US","LAUNCH_DATE":"2020-06-13","SITE":"AFETR","DECAY_DATE":null,"DECAYED":0,"FILE":3068555,"GP_ID":180166426,"TLE_LINE0":"0 STARLINK-1485","TLE_LINE1":"1 45774U 20038AW  21183.53619433  .00001040  00000-0  88686-4 0  9994","TLE_LINE2":"2 45774  53.0564 318.2926 0001304 114.3110 245.8015 15.06400270 58847"},"version":"v1.0","launch":"5eb87d46ffd86e000604b389","longitude":80.8648106456639,"latitude":28.88238269249183,"height_km":548.5443806772537,"velocity_kms":7.591657136926319,"id":"5eed7715096e5900069857a0"},{"spaceTrack":{"CCSDS_OMM_VERS":"2.0","COMMENT":"GENERATED VIA SPACE-TRACK.ORG API","CREATION_DATE":"2021-07-02T22:16:10","ORIGINATOR":"18 SPCS","OBJECT_NAME":"STARLINK-1353","OBJECT_ID":"2020-025G","CENTER_NAME":"EARTH","REF_FRAME":"TEME","TIME_SYSTEM":"UTC","MEAN_ELEMENT_THEORY":"SGP4","EPOCH":"2021-07-02T18:16:44.916672","MEAN_MOTION":15.13678537,"ECCENTRICITY":0.0002177,"INCLINATION":53.0018,"RA_OF_ASC_NODE":209.6234,"ARG_OF_PERICENTER":46.2913,"MEAN_ANOMALY":313.8258,"EPHEMERIS_TYPE":0,"CLASSIFICATION_TYPE":"U","NORAD_CAT_ID":45537,"ELEMENT_SET_NO":999,"REV_AT_EPOCH":6687,"BSTAR":0.00019783,"MEAN_MOTION_DOT":0.000033,"MEAN_MOTION_DDOT":0,"SEMIMAJOR_AXIS":6903.13,"PERIOD":95.132,"APOAPSIS":526.498,"PERIAPSIS":523.493,"OBJECT_TYPE":"PAYLOAD","RCS_SIZE":"LARGE","COUNTRY_CODE":"US","LAUNCH_DATE":"2020-04-22","SITE":"AFETR","DECAY_DATE":null,"DECAYED":0,"FILE":3068620,"GP_ID":180169892,"TLE_LINE0":"0 STARLINK-1353","TLE_LINE1":"1 45537U 20025G   21183.76163098  .00003300  00000-0  19783-3 0  9995","TLE_LINE2":"2 45537  53.0018 209.6234 0002177  46.2913 313.8258 15.13678537 66874"},"version":"v1.0","launch":"5eb87d44ffd86e000604b386","longitude":-159.6799736875801,"latitude":-51.68222758673984,"height_km":544.1546033359027,"velocity_kms":7.589226230947446,"id":"5eed7715096e5900069857a1"},{"spaceTrack":{"CCSDS_OMM_VERS":"2.0","COMMENT":"GENERATED VIA SPACE-TRACK.ORG API","CREATION_DATE":"2021-07-02T17:51:43","ORIGINATOR":"18 SPCS","OBJECT_NAME":"STARLINK-1294","OBJECT_ID":"2020-025W","CENTER_NAME":"EARTH","REF_FRAME":"TEME","TIME_SYSTEM":"UTC","MEAN_ELEMENT_THEORY":"SGP4","EPOCH":"2021-07-02T10:00:56.684736","MEAN_MOTION":15.06403145,"ECCENTRICITY":0.0000228,"INCLINATION":53.0543,"RA_OF_ASC_NODE":208.8251,"ARG_OF_PERICENTER":63.9382,"MEAN_ANOMALY":296.163,"EPHEMERIS_TYPE":0,"CLASSIFICATION_TYPE":"U","NORAD_CAT_ID":45551,"ELEMENT_SET_NO":999,"REV_AT_EPOCH":6744,"BSTAR":-0.0000051528,"MEAN_MOTION_DOT":-0.00000358,"MEAN_MOTION_DDOT":0,"SEMIMAJOR_AXIS":6925.339,"PERIOD":95.592,"APOAPSIS":547.362,"PERIAPSIS":547.046,"OBJECT_TYPE":"PAYLOAD","RCS_SIZE":"LARGE","COUNTRY_CODE":"US","LAUNCH_DATE":"2020-04-22","SITE":"AFETR","DECAY_DATE":null,"DECAYED":0,"FILE":3068555,"GP_ID":180166402,"TLE_LINE0":"0 STARLINK-1294","TLE_LINE1":"1 45551U 20025W   21183.41732274 -.00000358  00000-0 -51528-5 0  9998","TLE_LINE2":"2 45551  53.0543 208.8251 0000228  63.9382 296.1630 15.06403145 67448"},"version":"v1.0","launch":"5eb87d44ffd86e000604b386","longitude":-78.5428868836691,"latitude":-29.493897354930457,"height_km":556.1620569092911,"velocity_kms":7.583423522309753,"id":"5eed7715096e5900069857a2"}]